{
    "alt_name_1": "alt_name_1",
    "survey:date": "survey:date",
    "roof:orientation:compass": "roof:orientation:compass",
    "takeaway:covid19": "takeaway:covid19",
    "cuisine": "cuisine",
    "payment:cash": "payment:cash",
    "contact:twitter": "contact:twitter",
    "architect": "architect",
    "addr:street": "addr:street",
    "level": "level",
    "material": "material",
    "name:en": "name:en",
    "wheelchair:step_height": "wheelchair:step_height",
    "telephone": "telephone",
    "payment:visa_electron": "payment:visa_electron",
    "facebook": "facebook",
    "name:zh": "name:zh",
    "amenity": "amenity",
    "charge": "charge",
    "contact:phone": "contact:phone",
    "payment:cards": "payment:cards",
    "payment:contactless": "payment:contactless",
    "capacity": "capacity",
    "mapillary": "mapillary",
    "payment:visa": "payment:visa",
    "access": "access",
    "heritage": "heritage",
    "building": "building",
    "name:es": "name:es",
    "payment:notes": "payment:notes",
    "roof:shape": "roof:shape",
    "toilets": "toilets",
    "osm_user": "osm_user",
    "information": "information",
    "addr:suburb": "addr:suburb",
    "name:fr": "name:fr",
    "leisure": "leisure",
    "building:levels": "building:levels",
    "ref": "ref",
    "place": "place",
    "building:use": "building:use",
    "start_date": "start_date",
    "website": "website",
    "contact:instagram": "contact:instagram",
    "currency:XLT": "currency:XLT",
    "official_name": "official_name",
    "outdoor_seating": "outdoor_seating",
    "contact:facebook": "contact:facebook",
    "wheelchair": "wheelchair",
    "layer": "layer",
    "wheelchair:entrance_width": "wheelchair:entrance_width",
    "smoking": "smoking",
    "disused": "disused",
    "denomination": "denomination",
    "old_name": "old_name",
    "addr:housename": "addr:housename",
    "name:ja": "name:ja",
    "osm_timestamp": "osm_timestamp",
    "noname": "noname",
    "heritage:operator": "heritage:operator",
    "payment:coins": "payment:coins",
    "amenity_1": "amenity_1",
    "height": "height",
    "roof:height": "roof:height",
    "opening_hours:signed": "opening_hours:signed",
    "access:covid19": "access:covid19",
    "payment:credit_cards": "payment:credit_cards",
    "operator:wikidata": "operator:wikidata",
    "roof:colour": "roof:colour",
    "name:it": "name:it",
    "ref:FR:FANTOIR": "ref:FR:FANTOIR",
    "int_name": "int_name",
    "contact:website": "contact:website",
    "name:br": "name:br",
    "roof:levels": "roof:levels",
    "disused:amenity": "disused:amenity",
    "office": "office",
    "delivery:covid19": "delivery:covid19",
    "man_made": "man_made",
    "wikidata": "wikidata",
    "entrance:width": "entrance:width",
    "internet_access": "internet_access",
    "building:roof:shape": "building:roof:shape",
    "addr:hamlet": "addr:hamlet",
    "organic": "organic",
    "alt_name": "alt_name",
    "ref:FR:NAF": "ref:FR:NAF",
    "name:nl": "name:nl",
    "url": "url",
    "ref:FR:SIREN": "ref:FR:SIREN",
    "phone_1": "phone_1",
    "is_in": "is_in",
    "delivery": "delivery",
    "description:en": "description:en",
    "loc_name": "loc_name",
    "owner": "owner",
    "brand": "brand",
    "contact:city": "contact:city",
    "ref:FR:CRTA": "ref:FR:CRTA",
    "name:de": "name:de",
    "name:oc": "name:oc",
    "wheelchair:description": "wheelchair:description",
    "payment:american_express": "payment:american_express",
    "name:eu": "name:eu",
    "entrance:step:height": "entrance:step:height",
    "landuse": "landuse",
    "name_1": "name_1",
    "artist_name": "artist_name",
    "addr:unit": "addr:unit",
    "way_area": "way_area",
    "opening_hours": "opening_hours",
    "addr:city": "addr:city",
    "network": "network",
    "construction": "construction",
    "entrance:step_count": "entrance:step_count",
    "description": "description",
    "toilets:access": "toilets:access",
    "description:covid19": "description:covid19",
    "roof:material": "roof:material",
    "religion": "religion",
    "internet_access:fee": "internet_access:fee",
    "tourism": "tourism",
    "contact:mobile": "contact:mobile",
    "FID": "FID",
    "opening_hours:covid19": "opening_hours:covid19",
    "room": "room",
    "addr:state": "addr:state",
    "postal_code": "postal_code",
    "wikipedia": "wikipedia",
    "contact:street": "contact:street",
    "colour": "colour",
    "dog": "dog",
    "image": "image",
    "social_facility:for": "social_facility:for",
    "atm": "atm",
    "osm_version": "osm_version",
    "name:etymology:wikidata": "name:etymology:wikidata",
    "osm_uid": "osm_uid",
    "fax": "fax",
    "contact:postcode": "contact:postcode",
    "addr:housenumber": "addr:housenumber",
    "osm_changeset": "osm_changeset",
    "sport": "sport",
    "payment:mastercard": "payment:mastercard",
    "wifi": "wifi",
    "indoor": "indoor",
    "wall": "wall",
    "description:fr": "description:fr",
    "contact:fax": "contact:fax",
    "phone": "phone",
    "mhs:inscription_date": "mhs:inscription_date",
    "wikimedia_commons": "wikimedia_commons",
    "roof:orientation": "roof:orientation",
    "name:ko": "name:ko",
    "brand:wikidata": "brand:wikidata",
    "payment:maestro": "payment:maestro",
    "historic": "historic",
    "email": "email",
    "ref:FR:FINESS": "ref:FR:FINESS",
    "brand:wikipedia": "brand:wikipedia",
    "hide": "hide",
    "payment:visa_debit": "payment:visa_debit",
    "addr:place": "addr:place",
    "name:ru": "name:ru",
    "building:colour": "building:colour",
    "addr:postcode": "addr:postcode",
    "operator:type": "operator:type",
    "payment:cheque": "payment:cheque",
    "takeaway": "takeaway",
    "short_name": "short_name",
    "addr:country": "addr:country",
    "operator": "operator",
    "entrance": "entrance",
    "comment:fr": "comment:fr",
    "parking": "parking",
    "building:part": "building:part",
    "type": "type",
    "area": "area",
    "contact:email": "contact:email",
    "was:name": "was:name",
    "check_date": "check_date",
    "name": "name",
    "building:material": "building:material",
    "air_conditioning": "air_conditioning",
    "shop": "shop",
    "ref:FR:SIRET": "ref:FR:SIRET",
    "contact:addr": "contact:addr",
    "social_facility": "social_facility",
    "toilets:wheelchair": "toilets:wheelchair",
    "contact:country": "contact:country",
    "barrier": "barrier",
    "ele": "ele",
    "bmo:type": "bmo:type",
    "surveillance": "surveillance",
    "contact:housenumber": "contact:housenumber",
    "name:ar": "name:ar",
    "payment:debit_cards": "payment:debit_cards",
    "ref:mhs": "ref:mhs",
    "brand:website": "brand:website",
    "craft": "craft",
    "addr:full": "addr:full",
    "vending": "vending",
    "bus": "bus",
    "name:pt": "name:pt",
    "currency:EUR": "currency:EUR",
    "check_date:opening_hours": "check_date:opening_hours",
    "public_transport": "public_transport",
    "operator:wikipedia": "operator:wikipedia",
    "was:shop": "was:shop",
    "old_shop": "old_shop",
    "power": "power",
    "source_1": "source_1",
    "covered": "covered",
    "motor_vehicle": "motor_vehicle",
    "highway": "highway",
    "FIXME": "FIXME",
    "service": "service",
    "shelter": "shelter",
    "lit": "lit",
    "opening_hours:url": "opening_hours:url",
    "fee": "fee",
    "disused:shop": "disused:shop",
    "surface": "surface",
    "abandoned": "abandoned",
    "foot": "foot",
    "bicycle": "bicycle",
    "end_date": "end_date",
    "location": "location",
    "width": "width",
    "drive_through": "drive_through",
    "shop_1": "shop_1",
    "name:ca": "name:ca",
    "opening_date": "opening_date",
    "supervised": "supervised",
    "drinking_water": "drinking_water",
    "emergency": "emergency",
    "name:pl": "name:pl",
    "ref:UAI": "ref:UAI",
    "date": "date",
    "direction": "direction",
    "support": "support",
    "natural": "natural",
    "second_hand": "second_hand",
    "fence_type": "fence_type",
    "inscription": "inscription",
    "FR:ERP": "FR:ERP",
    "name:uk": "name:uk",
    "indoor:level": "indoor:level",
    "ruins": "ruins"
}